{
  "type": "FeatureCollection",
  "features": [
    {
      "type": "Feature",
      "properties": {
        "norad_id": 66601,
        "name": "STARLINK-35978",
        "group": "last-30-days",
        "lat": 16.66983065731044,
        "lon": -23.82794130975232,
        "alt_km": 440.5718046613856,
        "timestamp": "2025-12-15T19:00:44.077056+00:00",
        "meta_object_name": "STARLINK-35978",
        "meta_object_id": "2025-270P",
        "meta_epoch": "2025-12-14T20:00:06.000192",
        "meta_mean_motion": 15.4527898,
        "meta_eccentricity": 0.00011172,
        "meta_inclination": 42.9991,
        "meta_ra_of_asc_node": 180.4635,
        "meta_arg_of_pericenter": 273.7977,
        "meta_mean_anomaly": 308.2715,
        "meta_ephemeris_type": 0,
        "meta_classification_type": "U",
        "meta_norad_cat_id": 66601,
        "meta_element_set_no": 999,
        "meta_rev_at_epoch": 457,
        "meta_bstar": -0.045597923,
        "meta_mean_motion_dot": -0.01984116,
        "meta_mean_motion_ddot": 0,
        "tle_line1": "1 66601U 25270P   25348.83340278 -.01984116  00000+0 -45598-1 0  9995",
        "tle_line2": "2 66601  42.9991 180.4635 0001117 273.7977 308.2715 15.45278980  4575"
      },
      "geometry": {
        "type": "Point",
        "coordinates": [
          -23.82794130975232,
          16.66983065731044
        ]
      }
    },
    {
      "type": "Feature",
      "properties": {
        "norad_id": 66602,
        "name": "STARLINK-36050",
        "group": "last-30-days",
        "lat": 42.182872895529464,
        "lon": -108.3759542385915,
        "alt_km": 438.3674751335666,
        "timestamp": "2025-12-15T19:00:44.077066+00:00",
        "meta_object_name": "STARLINK-36050",
        "meta_object_id": "2025-270Q",
        "meta_epoch": "2025-12-14T20:00:06.000192",
        "meta_mean_motion": 15.40682441,
        "meta_eccentricity": 0.00016838,
        "meta_inclination": 42.9995,
        "meta_ra_of_asc_node": 180.6217,
        "meta_arg_of_pericenter": 260.4108,
        "meta_mean_anomaly": 255.4492,
        "meta_ephemeris_type": 0,
        "meta_classification_type": "U",
        "meta_norad_cat_id": 66602,
        "meta_element_set_no": 999,
        "meta_rev_at_epoch": 463,
        "meta_bstar": 0.00067072123,
        "meta_mean_motion_dot": 0.000278,
        "meta_mean_motion_ddot": 0,
        "tle_line1": "1 66602U 25270Q   25348.83340278  .00027800  00000+0  67072-3 0  9994",
        "tle_line2": "2 66602  42.9995 180.6217 0001683 260.4108 255.4492 15.40682441  4633"
      },
      "geometry": {
        "type": "Point",
        "coordinates": [
          -108.3759542385915,
          42.182872895529464
        ]
      }
    },
    {
      "type": "Feature",
      "properties": {
        "norad_id": 66603,
        "name": "STARLINK-36048",
        "group": "last-30-days",
        "lat": -8.268812388366227,
        "lon": 3.7921379743252692,
        "alt_km": 418.32521964985244,
        "timestamp": "2025-12-15T19:00:44.077078+00:00",
        "meta_object_name": "STARLINK-36048",
        "meta_object_id": "2025-270R",
        "meta_epoch": "2025-12-14T20:31:57.468000",
        "meta_mean_motion": 15.4998209,
        "meta_eccentricity": 0.00036397,
        "meta_inclination": 42.9992,
        "meta_ra_of_asc_node": 180.2932,
        "meta_arg_of_pericenter": 268.8194,
        "meta_mean_anomaly": 91.2249,
        "meta_ephemeris_type": 0,
        "meta_classification_type": "U",
        "meta_norad_cat_id": 66603,
        "meta_element_set_no": 999,
        "meta_rev_at_epoch": 457,
        "meta_bstar": -0.0034237355,
        "meta_mean_motion_dot": -0.00192289,
        "meta_mean_motion_ddot": 0,
        "tle_line1": "1 66603U 25270R   25348.85552625 -.00192289  00000+0 -34237-2 0  9990",
        "tle_line2": "2 66603  42.9992 180.2932 0003639 268.8194  91.2249 15.49982090  4572"
      },
      "geometry": {
        "type": "Point",
        "coordinates": [
          3.7921379743252692,
          -8.268812388366227
        ]
      }
    },
    {
      "type": "Feature",
      "properties": {
        "norad_id": 66604,
        "name": "STARLINK-35977",
        "group": "last-30-days",
        "lat": -11.805747916934015,
        "lon": 7.769489310254518,
        "alt_km": 415.6530540856156,
        "timestamp": "2025-12-15T19:00:44.077088+00:00",
        "meta_object_name": "STARLINK-35977",
        "meta_object_id": "2025-270S",
        "meta_epoch": "2025-12-14T22:04:04.540800",
        "meta_mean_motion": 15.50589172,
        "meta_eccentricity": 0.00018132,
        "meta_inclination": 42.9993,
        "meta_ra_of_asc_node": 179.9134,
        "meta_arg_of_pericenter": 265.0339,
        "meta_mean_anomaly": 95.0314,
        "meta_ephemeris_type": 0,
        "meta_classification_type": "U",
        "meta_norad_cat_id": 66604,
        "meta_element_set_no": 999,
        "meta_rev_at_epoch": 468,
        "meta_bstar": 0.00056915735,
        "meta_mean_motion_dot": 0.00033202,
        "meta_mean_motion_ddot": 0,
        "tle_line1": "1 66604U 25270S   25348.91949700  .00033202  00000+0  56916-3 0  9998",
        "tle_line2": "2 66604  42.9993 179.9134 0001813 265.0339  95.0314 15.50589172  4688"
      },
      "geometry": {
        "type": "Point",
        "coordinates": [
          7.769489310254518,
          -11.805747916934015
        ]
      }
    },
    {
      "type": "Feature",
      "properties": {
        "norad_id": 66605,
        "name": "STARLINK-36052",
        "group": "last-30-days",
        "lat": -13.199224995556618,
        "lon": 9.380747015869606,
        "alt_km": 415.14381856766795,
        "timestamp": "2025-12-15T19:00:44.077098+00:00",
        "meta_object_name": "STARLINK-36052",
        "meta_object_id": "2025-270T",
        "meta_epoch": "2025-12-14T22:03:34.355232",
        "meta_mean_motion": 15.5062245,
        "meta_eccentricity": 0.00030806,
        "meta_inclination": 42.9995,
        "meta_ra_of_asc_node": 179.9117,
        "meta_arg_of_pericenter": 262.0527,
        "meta_mean_anomaly": 97.9984,
        "meta_ephemeris_type": 0,
        "meta_classification_type": "U",
        "meta_norad_cat_id": 66605,
        "meta_element_set_no": 999,
        "meta_rev_at_epoch": 468,
        "meta_bstar": 0.0010308909,
        "meta_mean_motion_dot": 0.00060707,
        "meta_mean_motion_ddot": 0,
        "tle_line1": "1 66605U 25270T   25348.91914763  .00060707  00000+0  10309-2 0  9995",
        "tle_line2": "2 66605  42.9995 179.9117 0003080 262.0527  97.9984 15.50622450  4687"
      },
      "geometry": {
        "type": "Point",
        "coordinates": [
          9.380747015869606,
          -13.199224995556618
        ]
      }
    },
    {
      "type": "Feature",
      "properties": {
        "norad_id": 66606,
        "name": "STARLINK-36063",
        "group": "last-30-days",
        "lat": -15.69433408901564,
        "lon": 12.342542710302428,
        "alt_km": 415.9458888843046,
        "timestamp": "2025-12-15T19:00:44.077108+00:00",
        "meta_object_name": "STARLINK-36063",
        "meta_object_id": "2025-270U",
        "meta_epoch": "2025-12-14T22:02:35.345760",
        "meta_mean_motion": 15.5061281,
        "meta_eccentricity": 0.00018677,
        "meta_inclination": 42.9987,
        "meta_ra_of_asc_node": 179.9047,
        "meta_arg_of_pericenter": 276.4879,
        "meta_mean_anomaly": 83.5769,
        "meta_ephemeris_type": 0,
        "meta_classification_type": "U",
        "meta_norad_cat_id": 66606,
        "meta_element_set_no": 999,
        "meta_rev_at_epoch": 468,
        "meta_bstar": 0.0010215552,
        "meta_mean_motion_dot": 0.00060123,
        "meta_mean_motion_ddot": 0,
        "tle_line1": "1 66606U 25270U   25348.91846465  .00060123  00000+0  10216-2 0  9998",
        "tle_line2": "2 66606  42.9987 179.9047 0001867 276.4879  83.5769 15.50612810  4682"
      },
      "geometry": {
        "type": "Point",
        "coordinates": [
          12.342542710302428,
          -15.69433408901564
        ]
      }
    },
    {
      "type": "Feature",
      "properties": {
        "norad_id": 66607,
        "name": "STARLINK-35993",
        "group": "last-30-days",
        "lat": -14.345851538712045,
        "lon": 10.728603287263264,
        "alt_km": 415.9392463649301,
        "timestamp": "2025-12-15T19:00:44.077121+00:00",
        "meta_object_name": "STARLINK-35993",
        "meta_object_id": "2025-270V",
        "meta_epoch": "2025-12-14T22:03:05.219424",
        "meta_mean_motion": 15.50588245,
        "meta_eccentricity": 0.0001457,
        "meta_inclination": 42.999,
        "meta_ra_of_asc_node": 179.9087,
        "meta_arg_of_pericenter": 266.9429,
        "meta_mean_anomaly": 93.1265,
        "meta_ephemeris_type": 0,
        "meta_classification_type": "U",
        "meta_norad_cat_id": 66607,
        "meta_element_set_no": 999,
        "meta_rev_at_epoch": 458,
        "meta_bstar": 0.00061220898,
        "meta_mean_motion_dot": 0.0003575,
        "meta_mean_motion_ddot": 0,
        "tle_line1": "1 66607U 25270V   25348.91881041  .00035750  00000+0  61221-3 0  9999",
        "tle_line2": "2 66607  42.9990 179.9087 0001457 266.9429  93.1265 15.50588245  4582"
      },
      "geometry": {
        "type": "Point",
        "coordinates": [
          10.728603287263264,
          -14.345851538712045
        ]
      }
    }
  ]
}